norad_id,name,regime,epoch,line1,line2,inclination,eccentricity,mean_motion,raan,arg_pericenter,mean_anomaly
28082,CHINASAT 20,EGO,12119.81680319,1 28082U 03052A   12119.81680319 -.00000295 +00000-0 +10000-3 0 06044\,2 28082 000.0584 040.8438 0005920 000.5286 207.9682 01.00268823031012,0.0584,0.000592,1.00268823,40.8438,0.5286,207.9682
28082,CHINASAT 20,EGO,12120.55182630,1 28082U 03052A   12120.55182630 -.00000295  00000-0  10000-3 0  6039\,2 28082 000.0595 040.8080 0005919 000.5660 113.2908 01.00268526 31022,0.0595,0.0005919,1.00268526,40.808,0.566,113.2908
28082,CHINASAT 20,EGO,12120.76661053,1 28082U 03052A   12120.76661053 -.00000295 +00000-0 +10000-3 0 06044\,2 28082 000.0598 041.0648 0005913 000.1232 191.0082 01.00268431031025,0.0598,0.0005913,1.00268431,41.0648,0.1232,191.0082
28082,CHINASAT 20,EGO,12121.47629745,1 28082U 03052A   12121.47629745 -.00000295 +00000-0 +10000-3 0 06056\,2 28082 000.0608 041.0483 0005908 000.4918 086.8330 01.00268138031034,0.0608,0.0005908,1.00268138,41.0483,0.4918,86.833
28082,CHINASAT 20,EGO,12122.54424684,1 28082U 03052A   12122.54424684 -.00000294  00000-0  10000-3 0  6048\,2 28082 000.0626 041.0358 0005895 000.5716 112.2644 01.00267697 31049,0.0626,0.0005895,1.00267697,41.0358,0.5716,112.2644
28082,CHINASAT 20,EGO,12123.10559432,1 28082U 03052A   12123.10559432  .00000000  00000-0  10000-3 0  6056\,2 28082 000.0500 020.6951 0006039 023.6252 312.1712 01.00264188 27846,0.05,0.0006039,1.00264188,20.6951,23.6252,312.1712
28082,CHINASAT 20,EGO,12123.46803525,1 28082U 03052A   12123.46803525 -.00000295 +00000-0 +10000-3 0 06057\,2 28082 000.0640 041.0205 0005890 001.3514 084.9582 01.00267309031053,0.064,0.000589,1.00267309,41.0205,1.3514,84.9582
28082,CHINASAT 20,EGO,12124.92034102,1 28082U 03052A   12124.92034102 -.00000295  00000-0  10000-3 0  6067\,2 28082 000.0737 038.2881 0006090 007.1932 246.0802 01.00266691 31069,0.0737,0.000609,1.00266691,38.2881,7.1932,246.0802
28082,CHINASAT 20,EGO,12126.88760959,1 28082U 03052A   12126.88760959 -.00000300  00000-0  10000-3 0  6078\,2 28082 000.0671 059.1683 0006149 352.9196 229.6632 01.00275720 31089,0.0671,0.0006149,1.0027572,59.1683,352.9196,229.6632
28082,CHINASAT 20,EGO,12127.93772620,1 28082U 03052A   12127.93772620 -.00000303 +00000-0 +10000-3 0 06177\,2 28082 000.0700 058.8947 0006129 352.5367 249.4106 01.00275250031090,0.07,0.0006129,1.0027525,58.8947,352.5367,249.4106
28082,CHINASAT 20,EGO,12128.68950671,1 28082U 03052A   12128.68950671 -.00000306 +00000-0 +10000-3 0 06100\,2 28082 000.0716 058.8818 0006103 352.2541 161.0957 01.00274830031105,0.0716,0.0006103,1.0027483,58.8818,352.2541,161.0957
28082,CHINASAT 20,EGO,12129.25078909,1 28082U 03052A   12129.25078909 -.00000307  00000-0  10000-3 0  6098\,2 28082 000.0727 059.3995 0006243 354.3886 001.0603 01.00274466 31116,0.0727,0.0006243,1.00274466,59.3995,354.3886,1.0603
28082,CHINASAT 20,EGO,12129.51682091,1 28082U 03052A   12129.51682091 -.00000308 +00000-0 +10000-3 0 06103\,2 28082 000.0733 059.4349 0006245 354.3615 097.0882 01.00274368031114,0.0733,0.0006245,1.00274368,59.4349,354.3615,97.0882
28082,CHINASAT 20,EGO,12130.78998757,1 28082U 03052A   12130.78998757 -.00000310  00000-0  10000-3 0  6106\,2 28082 000.0763 059.2422 0006182 353.7349 197.5140 01.00273900 31129,0.0763,0.0006182,1.002739,59.2422,353.7349,197.514
28082,CHINASAT 20,EGO,12130.79875433,1 28082U 03052A   12130.79875433 -.00000311 +00000-0 +10000-3 0 06114\,2 28082 000.0763 059.2154 0006182 353.7510 200.6896 01.00273893031126,0.0763,0.0006182,1.00273893,59.2154,353.751,200.6896
28082,CHINASAT 20,EGO,12131.79497421,1 28082U 03052A   12131.79497421 -.00000312 +00000-0 +10000-3 0 06146\,2 28082 000.0784 059.1801 0006181 353.8115 200.2918 01.00273493031136,0.0784,0.0006181,1.00273493,59.1801,353.8115,200.2918
28082,CHINASAT 20,EGO,12132.50546163,1 28082U 03052A   12132.50546163 -.00000311  00000-0  10000-3 0  6121\,2 28082 000.0799 058.1664 0006024 350.8674 100.7317 01.00273162 31142,0.0799,0.0006024,1.00273162,58.1664,350.8674,100.7317
28082,CHINASAT 20,EGO,12133.78739493,1 28082U 03052A   12133.78739493 -.00000310 +00000-0 +10000-3 0 06165\,2 28082 000.0824 058.2829 0006025 351.6203 202.6278 01.00272724031155,0.0824,0.0006025,1.00272724,58.2829,351.6203,202.6278
28082,CHINASAT 20,EGO,12134.78348527,1 28082U 03052A   12134.78348527 -.00000307 +00000-0 +10000-3 0 06155\,2 28082 000.0844 058.3465 0006022 351.9246 201.8372 01.00272354031167,0.0844,0.0006022,1.00272354,58.3465,351.9246,201.8372
28082,CHINASAT 20,EGO,12135.77894906,1 28082U 03052A   12135.77894906 -.00000304 +00000-0 +10000-3 0 06148\,2 28082 000.0864 059.0290 0006136 355.8074 196.6170 01.00271951031171,0.0864,0.0006136,1.00271951,59.029,355.8074,196.617
28082,CHINASAT 20,EGO,12136.65729959,1 28082U 03052A   12136.65729959 -.00000301 +00000-0 +10000-3 0 06160\,2 28082 000.0882 059.2848 0006073 355.7255 153.5131 01.00271543031189,0.0882,0.0006073,1.00271543,59.2848,355.7255,153.5131
28082,CHINASAT 20,EGO,12137.60748032,1 28082U 03052A   12137.60748032 -.00000298  00000-0  10000-3 0  6153\,2 28082 000.0903 058.8499 0006035 350.6816 141.9949 01.00271140 31197,0.0903,0.0006035,1.0027114,58.8499,350.6816,141.9949
28082,CHINASAT 20,EGO,12138.91854660,1 28082U 03052A   12138.91854660 -.00000294  00000-0  10000-3 0  6160\,2 28082 000.0929 058.8576 0006062 352.1944 253.7494 01.00270724 31206,0.0929,0.0006062,1.00270724,58.8576,352.1944,253.7494
28082,CHINASAT 20,EGO,12138.98055642,1 28082U 03052A   12138.98055642 -.00000294 +00000-0 +10000-3 0 06171\,2 28082 000.0930 058.8578 0006064 352.2308 276.0971 01.00270697031204,0.093,0.0006064,1.00270697,58.8578,352.2308,276.0971
28082,CHINASAT 20,EGO,12139.77037822,1 28082U 03052A   12139.77037822 -.00000292 +00000-0 +10000-3 0 06201\,2 28082 000.0948 058.5370 0006030 352.7986 200.9598 01.00270366031215,0.0948,0.000603,1.00270366,58.537,352.7986,200.9598
28082,CHINASAT 20,EGO,12140.52849198,1 28082U 03052A   12140.52849198 -.00000290  00000-0  10000-3 0  6177\,2 28082 000.0962 058.7006 0006019 352.7725 114.4853 01.00270047 31227,0.0962,0.0006019,1.00270047,58.7006,352.7725,114.4853
28082,CHINASAT 20,EGO,12140.89415242,1 28082U 03052A   12140.89415242 -.00000290  00000-0  10000-3 0  6187\,2 28082 000.0865 273.7812 0005739 140.5910 243.5791 01.00269736 31228,0.0865,0.0005739,1.00269736,273.7812,140.591,243.5791
28082,CHINASAT 20,EGO,12141.79495951,1 28082U 03052A   12141.79495951 -.00000289 +00000-0 +10000-3 0 06225\,2 28082 000.0849 273.9503 0005709 140.2003 208.9710 01.00269316031237,0.0849,0.0005709,1.00269316,273.9503,140.2003,208.971
28082,CHINASAT 20,EGO,12142.03259485,1 28082U 03052A   12142.03259485 -.00000288  00000-0  10000-3 0  6198\,2 28082 000.0844 273.9353 0005707 140.1187 294.8485 01.00269224 31236,0.0844,0.0005707,1.00269224,273.9353,140.1187,294.8485
28082,CHINASAT 20,EGO,12142.86284912,1 28082U 03052A   12142.86284912 -.00000288 +00000-0 +10000-3 0 06248\,2 28082 000.0826 274.3968 0005672 139.5446 234.6626 01.00268898031240,0.0826,0.0005672,1.00268898,274.3968,139.5446,234.6626
28082,CHINASAT 20,EGO,12143.86079313,1 28082U 03052A   12143.86079313 -.00000288  00000-0  10000-3 0  6202\,2 28082 000.0807 274.8701 0005655 138.8279 235.1376 01.00268464 31254,0.0807,0.0005655,1.00268464,274.8701,138.8279,235.1376
28082,CHINASAT 20,EGO,12144.79099387,1 28082U 03052A   12144.79099387 -.00000288  00000-0  10000-3 0  6219\,2 28082 000.0780 274.6143 0005766 140.3698 209.6294 01.00268188 31267,0.078,0.0005766,1.00268188,274.6143,140.3698,209.6294
28082,CHINASAT 20,EGO,12144.84066339,1 28082U 03052A   12144.84066339  .00000000  00000-0  10000-3 0  6239\,2 28082 000.0663 272.4153 0006207 143.9999 226.1362 01.00265916 28068,0.0663,0.0006207,1.00265916,272.4153,143.9999,226.1362
28082,CHINASAT 20,EGO,12144.84066475,1 28082U 03052A   12144.84066475  .00000000  00000-0  10000-3 0  6229\,2 28082 000.0663 272.4156 0006207 143.9993 226.1369 01.00265916 28062,0.0663,0.0006207,1.00265916,272.4156,143.9993,226.1369
28082,CHINASAT 20,EGO,12146.73954874,1 28082U 03052A   12146.73954874 -.00000290  00000-0  10000-3 0  6220\,2 28082 000.0763 276.4033 0005301 135.1980 196.4560 01.00275889 31284,0.0763,0.0005301,1.00275889,276.4033,135.198,196.456
28082,CHINASAT 20,EGO,12147.83546190,1 28082U 03052A   12147.83546190 -.00000290 +00000-0 +10000-3 0 06253\,2 28082 000.0739 276.4281 0005300 135.2053 232.0478 01.00275454031297,0.0739,0.00053,1.00275454,276.4281,135.2053,232.0478
28082,CHINASAT 20,EGO,12148.77161938,1 28082U 03052A   12148.77161938 -.00000290 +00000-0 +10000-3 0 06306\,2 28082 000.0719 276.4954 0005317 135.0159 210.1213 01.00275121031302,0.0719,0.0005317,1.00275121,276.4954,135.0159,210.1213
28082,CHINASAT 20,EGO,12149.52090002,1 28082U 03052A   12149.52090002 -.00000290  00000-0  10000-3 0  6246\,2 28082 000.0702 276.5132 0005325 134.9330 120.6750 01.00274867 31319,0.0702,0.0005325,1.00274867,276.5132,134.933,120.675
28082,CHINASAT 20,EGO,12149.93801171,1 28082U 03052A   12149.93801171 -.00000290 +00000-0 +10000-3 0 06271\,2 28082 000.0692 276.6129 0005351 135.2396 270.8425 01.00274586031314,0.0692,0.0005351,1.00274586,276.6129,135.2396,270.8425
28082,CHINASAT 20,EGO,12150.53715794,1 28082U 03052A   12150.53715794 -.00000290  00000-0  10000-3 0  6252\,2 28082 000.0679 276.6187 0005362 135.2496 127.1160 01.00274379 31327,0.0679,0.0005362,1.00274379,276.6187,135.2496,127.116
28082,CHINASAT 20,EGO,12150.92771171,1 28082U 03052A   12150.92771171 -.00000291 +00000-0 +10000-3 0 06280\,2 28082 000.0669 276.7566 0005403 136.0908 267.1220 01.00274111031327,0.0669,0.0005403,1.00274111,276.7566,136.0908,267.122
28082,CHINASAT 20,EGO,12151.56242131,1 28082U 03052A   12151.56242131 -.00000291  00000-0  10000-3 0  6268\,2 28082 000.0655 276.8967 0005430 138.4519 133.7448 01.00273843 31334,0.0655,0.000543,1.00273843,276.8967,138.4519,133.7448
